FOSSASAT-2E20 (TAT-O)   
1 63003U 25009DN  26068.70855016  .00016337  00000+0  61863-3 0  9998
2 63003  97.3231 146.2859 0002189 347.5575  12.5610 15.26991080121314
STARLINK-35874          
1 66962U 25288D   26068.24006589  .00023725  00000+0  86914-3 0  9999
2 66962  43.0023  26.4182 0001840 276.9906  83.0737 15.27570001 15213
